IRIDIUM 112             
1 41925U 17003J   25356.82849559  .00000015  00000+0 -17214-5 0  9999
2 41925  86.3993 162.0002 0001789  92.6593 267.4807 14.34217690467997
IRIDIUM 111             
1 41926U 17003K   25356.46696900  .00000048  00000+0  99160-5 0  9995
2 41926  86.3987 162.2176 0002021  94.7351 265.4075 14.34218197467921
IRIDIUM 113             
1 42803U 17039A   25356.51670328 -.00000025  00000+0 -15854-4 0  9995
2 42803  86.3959  36.0076 0001897  95.1634 264.9778 14.34217438445861
IRIDIUM 123             
1 42804U 17039B   25356.48841233  .00000216  00000+0  70089-4 0  9998
2 42804  86.3957  67.5037 0002265 103.5822 256.5627 14.34219482444623
IRIDIUM 120             
1 42805U 17039C   25356.58012736  .00000138  00000+0  42333-4 0  9992
2 42805  86.3952  35.7869 0002513  93.1207 267.0277 14.34219230445862
IRIDIUM 115             
1 42806U 17039D   25356.53293568  .00000316  00000+0  87880-4 0  9996
2 42806  86.4490  35.9111 0002704 101.5980 258.5524 14.43280610448781
IRIDIUM 118             
1 42807U 17039E   25356.58989572  .00000275  00000+0  90965-4 0  9991
2 42807  86.3959  67.4604 0002031  98.0041 262.1385 14.34218679444631
IRIDIUM 117             
1 42808U 17039F   25356.60892287  .00000201  00000+0  64803-4 0  9992
2 42808  86.3959  67.4116 0002151 102.0182 258.1255 14.34217918444664
